STARLINK-32266          
1 60369U 24138Q   25234.17064193 -.00000166  00000+0  65129-5 0  9990
2 60369  53.1606 143.8247 0001268  86.8680 273.2466 15.30184792 60252
STARLINK-32220          
1 60370U 24138R   25234.20488789 -.00002094  00000+0 -58627-4 0  9994
2 60370  53.1602 156.3287 0001144  72.2468 287.8657 15.30179343 60089
STARLINK-32263          
1 60371U 24138S   25234.16478079  .00000534  00000+0  30154-4 0  9991
2 60371  53.1585 156.0792 0001098  79.6701 280.4423 15.30194496 59980
STARLINK-32268          
1 60372U 24138T   25234.21965360  .00000322  00000+0  22997-4 0  9993
2 60372  53.1587 156.4239 0000888 108.7359 251.3739 15.30199632 60089
STARLINK-32223          
1 60373U 24138U   25232.82799454 -.00000134  00000+0  75934-5 0  9990
2 60373  53.1602 162.6667 0001304  81.1287 278.9861 15.30197162 59771
STARLINK-32180          
1 60374U 24138V   25234.20171374  .00002191  00000+0  86081-4 0  9998
2 60374  53.1579 156.3076 0000960  86.0804 274.0306 15.30199334 60085
STARLINK-32281          
1 60375U 24138W   25232.80267197 -.00001273  00000+0 -30862-4 0  9990
2 60375  53.1591 162.5084 0001142  93.9264 266.1867 15.30186467 59779
STARLINK-32277          
1 60376U 24138X   25234.01210171  .00000399  00000+0  25589-4 0  9992
2 60376  53.1590 157.2563 0001005  79.2056 280.9058 15.30196394 60055
STARLINK-32269          
1 60377U 24138Y   25234.19221559  .00000262  00000+0  20984-4 0  9997
2 60377  53.1604 156.2463 0001251  75.6175 284.4965 15.30196200 60080
STARLINK-11228 [DTC]    
1 60398U 24141A   25232.62800612 -.00000724  00000+0 -11148-5 0  9991
2 60398  53.1592 357.4428 0001186  79.1548 280.9603 15.69704257 60118
STARLINK-11182 [DTC]    
1 60399U 24141B   25232.61328473 -.00000371  00000+0  17932-5 0  9995
2 60399  53.1592 357.3446 0000950  75.9167 284.1956 15.69708624 60161
STARLINK-11234 [DTC]    
1 60400U 24141C   25232.60837953 -.00000381  00000+0  17143-5 0  9990
2 60400  53.1597 357.3116 0000993  85.9460 274.1671 15.69707732 60114
STARLINK-11232 [DTC]    
1 60401U 24141D   25232.73082199 -.00000391  00000+0  16300-5 0  9994
2 60401  53.1589 356.6547 0001311  59.4504 300.6643 15.69694443 60181
STARLINK-11139 [DTC]    
1 60402U 24141E   25232.72591599 -.00000647  00000+0 -48068-6 0  9995
2 60402  53.1584 356.6209 0001112  67.6452 292.4684 15.69696157 60181
STARLINK-11158 [DTC]    
1 60403U 24141F   25232.59376793  .00005487  00000+0  50142-4 0  9997
2 60403  53.1586 357.9481 0000912 109.6997 250.4120 15.69696389 60106
STARLINK-11199 [DTC]    
1 60404U 24141G   25232.65253241 -.00001210  00000+0 -51339-5 0  9999
2 60404  53.1589 357.6020 0000855  84.8924 275.2191 15.69703188 60161
