[{"OBJECT_NAME":"STARLINK-32266","OBJECT_ID":"2024-138Q","EPOCH":"2025-08-22T04:05:43.462752","MEAN_MOTION":15.30184792,"ECCENTRICITY":0.00012687,"INCLINATION":53.1606,"RA_OF_ASC_NODE":143.8247,"ARG_OF_PERICENTER":86.868,"MEAN_ANOMALY":273.2466,"EPHEMERIS_TYPE":0,"CLASSIFICATION_TYPE":"U","NORAD_CAT_ID":60369,"ELEMENT_SET_NO":999,"REV_AT_EPOCH":6025,"BSTAR":6.512863e-6,"MEAN_MOTION_DOT":-1.66e-6,"MEAN_MOTION_DDOT":0},{"OBJECT_NAME":"STARLINK-32220","OBJECT_ID":"2024-138R","EPOCH":"2025-08-22T04:55:02.313696","MEAN_MOTION":15.30179343,"ECCENTRICITY":0.0001144,"INCLINATION":53.1602,"RA_OF_ASC_NODE":156.3287,"ARG_OF_PERICENTER":72.2468,"MEAN_ANOMALY":287.8657,"EPHEMERIS_TYPE":0,"CLASSIFICATION_TYPE":"U","NORAD_CAT_ID":60370,"ELEMENT_SET_NO":999,"REV_AT_EPOCH":6008,"BSTAR":-5.8627316e-5,"MEAN_MOTION_DOT":-2.094e-5,"MEAN_MOTION_DDOT":0},{"OBJECT_NAME":"STARLINK-32263","OBJECT_ID":"2024-138S","EPOCH":"2025-08-22T03:57:17.060256","MEAN_MOTION":15.30194496,"ECCENTRICITY":0.00010982,"INCLINATION":53.1585,"RA_OF_ASC_NODE":156.0792,"ARG_OF_PERICENTER":79.6701,"MEAN_ANOMALY":280.4423,"EPHEMERIS_TYPE":0,"CLASSIFICATION_TYPE":"U","NORAD_CAT_ID":60371,"ELEMENT_SET_NO":999,"REV_AT_EPOCH":5998,"BSTAR":3.0153992e-5,"MEAN_MOTION_DOT":5.34e-6,"MEAN_MOTION_DDOT":0},{"OBJECT_NAME":"STARLINK-32268","OBJECT_ID":"2024-138T","EPOCH":"2025-08-22T05:16:18.071040","MEAN_MOTION":15.30199632,"ECCENTRICITY":8.885e-5,"INCLINATION":53.1587,"RA_OF_ASC_NODE":156.4239,"ARG_OF_PERICENTER":108.7359,"MEAN_ANOMALY":251.3739,"EPHEMERIS_TYPE":0,"CLASSIFICATION_TYPE":"U","NORAD_CAT_ID":60372,"ELEMENT_SET_NO":999,"REV_AT_EPOCH":6008,"BSTAR":2.2996845e-5,"MEAN_MOTION_DOT":3.22e-6,"MEAN_MOTION_DDOT":0},{"OBJECT_NAME":"STARLINK-32223","OBJECT_ID":"2024-138U","EPOCH":"2025-08-20T19:52:18.728256","MEAN_MOTION":15.30197162,"ECCENTRICITY":0.0001304,"INCLINATION":53.1602,"RA_OF_ASC_NODE":162.6667,"ARG_OF_PERICENTER":81.1287,"MEAN_ANOMALY":278.9861,"EPHEMERIS_TYPE":0,"CLASSIFICATION_TYPE":"U","NORAD_CAT_ID":60373,"ELEMENT_SET_NO":999,"REV_AT_EPOCH":5977,"BSTAR":7.5934e-6,"MEAN_MOTION_DOT":-1.34e-6,"MEAN_MOTION_DDOT":0},{"OBJECT_NAME":"STARLINK-32180","OBJECT_ID":"2024-138V","EPOCH":"2025-08-22T04:50:28.067136","MEAN_MOTION":15.30199334,"ECCENTRICITY":9.603e-5,"INCLINATION":53.1579,"RA_OF_ASC_NODE":156.3076,"ARG_OF_PERICENTER":86.0804,"MEAN_ANOMALY":274.0306,"EPHEMERIS_TYPE":0,"CLASSIFICATION_TYPE":"U","NORAD_CAT_ID":60374,"ELEMENT_SET_NO":999,"REV_AT_EPOCH":6008,"BSTAR":8.6081217e-5,"MEAN_MOTION_DOT":2.191e-5,"MEAN_MOTION_DDOT":0},{"OBJECT_NAME":"STARLINK-32281","OBJECT_ID":"2024-138W","EPOCH":"2025-08-20T19:15:50.858208","MEAN_MOTION":15.30186467,"ECCENTRICITY":0.0001142,"INCLINATION":53.1591,"RA_OF_ASC_NODE":162.5084,"ARG_OF_PERICENTER":93.9264,"MEAN_ANOMALY":266.1867,"EPHEMERIS_TYPE":0,"CLASSIFICATION_TYPE":"U","NORAD_CAT_ID":60375,"ELEMENT_SET_NO":999,"REV_AT_EPOCH":5977,"BSTAR":-3.0862e-5,"MEAN_MOTION_DOT":-1.273e-5,"MEAN_MOTION_DDOT":0},{"OBJECT_NAME":"STARLINK-32277","OBJECT_ID":"2024-138X","EPOCH":"2025-08-22T00:17:25.587744","MEAN_MOTION":15.30196394,"ECCENTRICITY":0.00010052,"INCLINATION":53.159,"RA_OF_ASC_NODE":157.2563,"ARG_OF_PERICENTER":79.2056,"MEAN_ANOMALY":280.9058,"EPHEMERIS_TYPE":0,"CLASSIFICATION_TYPE":"U","NORAD_CAT_ID":60376,"ELEMENT_SET_NO":999,"REV_AT_EPOCH":6005,"BSTAR":2.5589231e-5,"MEAN_MOTION_DOT":3.99e-6,"MEAN_MOTION_DDOT":0},{"OBJECT_NAME":"STARLINK-32269","OBJECT_ID":"2024-138Y","EPOCH":"2025-08-22T04:36:47.426976","MEAN_MOTION":15.301962,"ECCENTRICITY":0.00012511,"INCLINATION":53.1604,"RA_OF_ASC_NODE":156.2463,"ARG_OF_PERICENTER":75.6175,"MEAN_ANOMALY":284.4965,"EPHEMERIS_TYPE":0,"CLASSIFICATION_TYPE":"U","NORAD_CAT_ID":60377,"ELEMENT_SET_NO":999,"REV_AT_EPOCH":6008,"BSTAR":2.0984216e-5,"MEAN_MOTION_DOT":2.62e-6,"MEAN_MOTION_DDOT":0},{"OBJECT_NAME":"STARLINK-11228 [DTC]","OBJECT_ID":"2024-141A","EPOCH":"2025-08-20T15:04:19.728768","MEAN_MOTION":15.69704257,"ECCENTRICITY":0.0001186,"INCLINATION":53.1592,"RA_OF_ASC_NODE":357.4428,"ARG_OF_PERICENTER":79.1548,"MEAN_ANOMALY":280.9603,"EPHEMERIS_TYPE":0,"CLASSIFICATION_TYPE":"U","NORAD_CAT_ID":60398,"ELEMENT_SET_NO":999,"REV_AT_EPOCH":6011,"BSTAR":-1.1148e-6,"MEAN_MOTION_DOT":-7.24e-6,"MEAN_MOTION_DDOT":0},{"OBJECT_NAME":"STARLINK-11182 [DTC]","OBJECT_ID":"2024-141B","EPOCH":"2025-08-20T14:43:07.800672","MEAN_MOTION":15.69708624,"ECCENTRICITY":9.5e-5,"INCLINATION":53.1592,"RA_OF_ASC_NODE":357.3446,"ARG_OF_PERICENTER":75.9167,"MEAN_ANOMALY":284.1956,"EPHEMERIS_TYPE":0,"CLASSIFICATION_TYPE":"U","NORAD_CAT_ID":60399,"ELEMENT_SET_NO":999,"REV_AT_EPOCH":6016,"BSTAR":1.7932e-6,"MEAN_MOTION_DOT":-3.71e-6,"MEAN_MOTION_DDOT":0},{"OBJECT_NAME":"STARLINK-11234 [DTC]","OBJECT_ID":"2024-141C","EPOCH":"2025-08-20T14:36:03.991392","MEAN_MOTION":15.69707732,"ECCENTRICITY":9.93e-5,"INCLINATION":53.1597,"RA_OF_ASC_NODE":357.3116,"ARG_OF_PERICENTER":85.946,"MEAN_ANOMALY":274.1671,"EPHEMERIS_TYPE":0,"CLASSIFICATION_TYPE":"U","NORAD_CAT_ID":60400,"ELEMENT_SET_NO":999,"REV_AT_EPOCH":6011,"BSTAR":1.7143e-6,"MEAN_MOTION_DOT":-3.81e-6,"MEAN_MOTION_DDOT":0},{"OBJECT_NAME":"STARLINK-11232 [DTC]","OBJECT_ID":"2024-141D","EPOCH":"2025-08-20T17:32:23.019936","MEAN_MOTION":15.69694443,"ECCENTRICITY":0.0001311,"INCLINATION":53.1589,"RA_OF_ASC_NODE":356.6547,"ARG_OF_PERICENTER":59.4504,"MEAN_ANOMALY":300.6643,"EPHEMERIS_TYPE":0,"CLASSIFICATION_TYPE":"U","NORAD_CAT_ID":60401,"ELEMENT_SET_NO":999,"REV_AT_EPOCH":6018,"BSTAR":1.63e-6,"MEAN_MOTION_DOT":-3.91e-6,"MEAN_MOTION_DDOT":0},{"OBJECT_NAME":"STARLINK-11139 [DTC]","OBJECT_ID":"2024-141E","EPOCH":"2025-08-20T17:25:19.141536","MEAN_MOTION":15.69696157,"ECCENTRICITY":0.0001112,"INCLINATION":53.1584,"RA_OF_ASC_NODE":356.6209,"ARG_OF_PERICENTER":67.6452,"MEAN_ANOMALY":292.4684,"EPHEMERIS_TYPE":0,"CLASSIFICATION_TYPE":"U","NORAD_CAT_ID":60402,"ELEMENT_SET_NO":999,"REV_AT_EPOCH":6018,"BSTAR":-4.8068e-7,"MEAN_MOTION_DOT":-6.47e-6,"MEAN_MOTION_DDOT":0},{"OBJECT_NAME":"STARLINK-11158 [DTC]","OBJECT_ID":"2024-141F","EPOCH":"2025-08-20T14:15:01.549152","MEAN_MOTION":15.69696389,"ECCENTRICITY":9.12e-5,"INCLINATION":53.1586,"RA_OF_ASC_NODE":357.9481,"ARG_OF_PERICENTER":109.6997,"MEAN_ANOMALY":250.412,"EPHEMERIS_TYPE":0,"CLASSIFICATION_TYPE":"U","NORAD_CAT_ID":60403,"ELEMENT_SET_NO":999,"REV_AT_EPOCH":6010,"BSTAR":5.0142e-5,"MEAN_MOTION_DOT":5.487e-5,"MEAN_MOTION_DDOT":0},{"OBJECT_NAME":"STARLINK-11199 [DTC]","OBJECT_ID":"2024-141G","EPOCH":"2025-08-20T15:39:38.800224","MEAN_MOTION":15.69703188,"ECCENTRICITY":8.55e-5,"INCLINATION":53.1589,"RA_OF_ASC_NODE":357.602,"ARG_OF_PERICENTER":84.8924,"MEAN_ANOMALY":275.2191,"EPHEMERIS_TYPE":0,"CLASSIFICATION_TYPE":"U","NORAD_CAT_ID":60404,"ELEMENT_SET_NO":999,"REV_AT_EPOCH":6016,"BSTAR":-5.1339e-6,"MEAN_MOTION_DOT":-1.21e-5,"MEAN_MOTION_DDOT":0}]
